{"fetched_at":"2026-03-29T02:12:04Z","count":15717,"tles":[{"name":"COSMO-SKYMED 4","line1":"1 37216U 10060A   26087.36359895  .00000145  00000+0  24820-4 0  9996","line2":"2 37216  97.8884 272.1304 0001497  81.3790 278.7593 14.82160786832594","category":"Other"}]}